EUTELSAT 21B            
1 38992U 12062B   25338.21948869  .00000146  00000+0  00000+0 0  9999
2 38992   0.0676 347.5432 0003375 278.9429 267.4453  1.00274134 47878
EUTELSAT 70B            
1 39020U 12069A   25337.78863487 -.00000026  00000+0  00000+0 0  9990
2 39020   0.0629   2.7299 0004334 239.4424 185.1062  1.00271658 47558
EUTELSAT 117 WEST A     
1 39122U 13012A   25338.23716793  .00000003  00000+0  00000+0 0  9994
2 39122   0.0197 312.7527 0003203 302.8271 146.3287  1.00272356 46472
EUTELSAT 7B             
1 39163U 13022A   25338.21662868  .00000064  00000+0  00000+0 0  9998
2 39163   0.0680   1.8831 0004259 309.1609 207.2315  1.00269649 46004
EXPRESS-AT1             
1 39612U 14010A   25338.58302176  .00000093  00000+0  00000+0 0  9990
2 39612   0.0176 304.2222 0000136 222.5945 172.7241  1.00270212 42860
EXPRESS-AT2             
1 39613U 14010B   25338.31431375  .00000000  00000+0  00000+0 0  9994
2 39613   0.0214 337.5162 0001511 316.7864  32.0865  1.00270269 42547
EUTELSAT 3B             
1 39773U 14030A   25338.21584867  .00000036  00000+0  00000+0 0  9996
2 39773   0.0636   4.0806 0004776 224.8213 285.1915  1.00270965 42119
EUTELSAT 115 WEST B     
1 40425U 15010B   25338.26378677 -.00000010  00000+0  00000+0 0  9999
2 40425   0.0127 145.1164 0000493 271.4317 356.8728  1.00273680 39435
